{
    "links": {
        "self": "http://www.neowsapp.com/rest/v1/neo/3670725?api_key=iIulBulltgU6a56xZRHN4H3l9WmuAYTsLGpBGhQ2"
    },
    "id": "3670725",
    "neo_reference_id": "3670725",
    "name": "(2014 HR190)",
    "designation": "2014 HR190",
    "nasa_jpl_url": "http://ssd.jpl.nasa.gov/sbdb.cgi?sstr=3670725",
    "absolute_magnitude_h": 26.2,
    "estimated_diameter": {
        "kilometers": {
            "estimated_diameter_min": 0.0152951935,
            "estimated_diameter_max": 0.0342010925
        },
        "meters": {
            "estimated_diameter_min": 15.2951935344,
            "estimated_diameter_max": 34.201092472
        },
        "miles": {
            "estimated_diameter_min": 0.0095039897,
            "estimated_diameter_max": 0.021251567
        },
        "feet": {
            "estimated_diameter_min": 50.1810827555,
            "estimated_diameter_max": 112.2083122258
        }
    },
    "is_potentially_hazardous_asteroid": false,
    "close_approach_data": [
        {
            "close_approach_date": "2014-04-27",
            "close_approach_date_full": "2014-Apr-27 01:37",
            "epoch_date_close_approach": 1398562620000,
            "relative_velocity": {
                "kilometers_per_second": "3.5513183387",
                "kilometers_per_hour": "12784.7460193106",
                "miles_per_hour": "7943.9439918322"
            },
            "miss_distance": {
                "astronomical": "0.1640621257",
                "lunar": "63.8201668973",
                "kilometers": "24543344.552392259",
                "miles": "15250527.1285168142"
            },
            "orbiting_body": "Earth"
        }
    ],
    "orbital_data": {
        "orbit_id": "10",
        "orbit_determination_date": "2017-04-06 08:41:11",
        "first_observation_date": "2014-04-23",
        "last_observation_date": "2014-05-05",
        "data_arc_in_days": 12,
        "observations_used": 17,
        "orbit_uncertainty": "8",
        "minimum_orbit_intersection": ".162613",
        "jupiter_tisserand_invariant": "3.722",
        "epoch_osculation": "2456773.5",
        "eccentricity": ".4174007355237261",
        "semi_major_axis": "2.004531188460726",
        "inclination": "2.917638478346983",
        "ascending_node_longitude": "196.6462971340882",
        "orbital_period": "1036.615393196447",
        "perihelion_distance": "1.16783839601697",
        "perihelion_argument": "18.14847105153116",
        "aphelion_distance": "2.841223980904481",
        "perihelion_time": "2456774.014783242377",
        "mean_anomaly": "359.821223986763",
        "mean_motion": ".3472840576772885",
        "equinox": "J2000",
        "orbit_class": {
            "orbit_class_type": "AMO",
            "orbit_class_description": "Near-Earth asteroid orbits similar to that of 1221 Amor",
            "orbit_class_range": "1.017 AU < q (perihelion) < 1.3 AU"
        }
    },
    "is_sentry_object": false
}